{
  "type": "FeatureCollection",
  "features": [
    {
      "type": "Feature",
      "properties": {
        "norad_id": 38755,
        "name": "SPOT 6",
        "group": "resource",
        "lat": 4.579178856516393,
        "lon": 55.84849637254579,
        "alt_km": 700.0662630995639,
        "timestamp": "2025-12-17T19:34:07.701653+00:00",
        "meta_object_name": "SPOT 6",
        "meta_object_id": "2012-047A",
        "meta_epoch": "2025-12-17T01:26:14.839008",
        "meta_mean_motion": 14.58607064,
        "meta_eccentricity": 0.0001179,
        "meta_inclination": 98.1572,
        "meta_ra_of_asc_node": 55.7652,
        "meta_arg_of_pericenter": 98.8193,
        "meta_mean_anomaly": 261.314,
        "meta_ephemeris_type": 0,
        "meta_classification_type": "U",
        "meta_norad_cat_id": 38755,
        "meta_element_set_no": 999,
        "meta_rev_at_epoch": 70650,
        "meta_bstar": 6.1315525e-05,
        "meta_mean_motion_dot": 2.4e-06,
        "meta_mean_motion_ddot": 0,
        "tle_line1": "1 38755U 12047A   25351.05989397  .00000240  00000+0  61316-4 0  9994",
        "tle_line2": "2 38755  98.1572  55.7652 0001179  98.8193 261.3140 14.58607064706504"
      },
      "geometry": {
        "type": "Point",
        "coordinates": [
          55.84849637254579,
          4.579178856516393
        ]
      }
    },
    {
      "type": "Feature",
      "properties": {
        "norad_id": 39019,
        "name": "PLEIADES 1B",
        "group": "resource",
        "lat": -78.8680592444595,
        "lon": -162.57923159611966,
        "alt_km": 705.9948576026236,
        "timestamp": "2025-12-17T19:34:07.701663+00:00",
        "meta_object_name": "PLEIADES 1B",
        "meta_object_id": "2012-068A",
        "meta_epoch": "2025-12-17T08:29:26.407104",
        "meta_mean_motion": 14.58557433,
        "meta_eccentricity": 0.00011641,
        "meta_inclination": 98.1794,
        "meta_ra_of_asc_node": 63.9327,
        "meta_arg_of_pericenter": 83.0317,
        "meta_mean_anomaly": 277.1015,
        "meta_ephemeris_type": 0,
        "meta_classification_type": "U",
        "meta_norad_cat_id": 39019,
        "meta_element_set_no": 999,
        "meta_rev_at_epoch": 69434,
        "meta_bstar": 8.5006589e-05,
        "meta_mean_motion_dot": 3.5e-06,
        "meta_mean_motion_ddot": 0,
        "tle_line1": "1 39019U 12068A   25351.35377786  .00000350  00000+0  85007-4 0  9992",
        "tle_line2": "2 39019  98.1794  63.9327 0001164  83.0317 277.1015 14.58557433694340"
      },
      "geometry": {
        "type": "Point",
        "coordinates": [
          -162.57923159611966,
          -78.8680592444595
        ]
      }
    },
    {
      "type": "Feature",
      "properties": {
        "norad_id": 39030,
        "name": "GOKTURK 2",
        "group": "resource",
        "lat": 61.935332338139496,
        "lon": 178.53972484257613,
        "alt_km": 637.5884691380152,
        "timestamp": "2025-12-17T19:34:07.701673+00:00",
        "meta_object_name": "GOKTURK 2",
        "meta_object_id": "2012-073A",
        "meta_epoch": "2025-12-17T07:53:24.462240",
        "meta_mean_motion": 14.75297267,
        "meta_eccentricity": 0.00011372,
        "meta_inclination": 97.6893,
        "meta_ra_of_asc_node": 192.7564,
        "meta_arg_of_pericenter": 105.9161,
        "meta_mean_anomaly": 254.2174,
        "meta_ephemeris_type": 0,
        "meta_classification_type": "U",
        "meta_norad_cat_id": 39030,
        "meta_element_set_no": 999,
        "meta_rev_at_epoch": 69769,
        "meta_bstar": 7.6744943e-05,
        "meta_mean_motion_dot": 4.73e-06,
        "meta_mean_motion_ddot": 0,
        "tle_line1": "1 39030U 12073A   25351.32875535  .00000473  00000+0  76745-4 0  9998",
        "tle_line2": "2 39030  97.6893 192.7564 0001137 105.9161 254.2174 14.75297267697690"
      },
      "geometry": {
        "type": "Point",
        "coordinates": [
          178.53972484257613,
          61.935332338139496
        ]
      }
    },
    {
      "type": "Feature",
      "properties": {
        "norad_id": 39084,
        "name": "LANDSAT 8",
        "group": "resource",
        "lat": 45.50812521921277,
        "lon": 51.36650054354808,
        "alt_km": 698.0112589010159,
        "timestamp": "2025-12-17T19:34:07.701684+00:00",
        "meta_object_name": "LANDSAT 8",
        "meta_object_id": "2013-008A",
        "meta_epoch": "2025-12-17T07:49:17.321952",
        "meta_mean_motion": 14.57118584,
        "meta_eccentricity": 0.00010605,
        "meta_inclination": 98.2068,
        "meta_ra_of_asc_node": 59.3317,
        "meta_arg_of_pericenter": 91.1666,
        "meta_mean_anomaly": 268.9654,
        "meta_ephemeris_type": 0,
        "meta_classification_type": "U",
        "meta_norad_cat_id": 39084,
        "meta_element_set_no": 999,
        "meta_rev_at_epoch": 67141,
        "meta_bstar": 9.0773366e-05,
        "meta_mean_motion_dot": 3.64e-06,
        "meta_mean_motion_ddot": 0,
        "tle_line1": "1 39084U 13008A   25351.32589493  .00000364  00000+0  90773-4 0  9997",
        "tle_line2": "2 39084  98.2068  59.3317 0001060  91.1666 268.9654 14.57118584671416"
      },
      "geometry": {
        "type": "Point",
        "coordinates": [
          51.36650054354808,
          45.50812521921277
        ]
      }
    },
    {
      "type": "Feature",
      "properties": {
        "norad_id": 39086,
        "name": "SARAL",
        "group": "resource",
        "lat": -51.72082680307935,
        "lon": -173.33074694343307,
        "alt_km": 791.2831295018123,
        "timestamp": "2025-12-17T19:34:07.701694+00:00",
        "meta_object_name": "SARAL",
        "meta_object_id": "2013-009A",
        "meta_epoch": "2025-12-17T06:24:19.100736",
        "meta_mean_motion": 14.32758605,
        "meta_eccentricity": 0.00029347,
        "meta_inclination": 98.5502,
        "meta_ra_of_asc_node": 175.1382,
        "meta_arg_of_pericenter": 100.2152,
        "meta_mean_anomaly": 259.9363,
        "meta_ephemeris_type": 0,
        "meta_classification_type": "U",
        "meta_norad_cat_id": 39086,
        "meta_element_set_no": 999,
        "meta_rev_at_epoch": 66955,
        "meta_bstar": 5.6312941e-05,
        "meta_mean_motion_dot": 1.1e-06,
        "meta_mean_motion_ddot": 0,
        "tle_line1": "1 39086U 13009A   25351.26688774  .00000110  00000+0  56313-4 0  9996",
        "tle_line2": "2 39086  98.5502 175.1382 0002934 100.2152 259.9363 14.32758605669552"
      },
      "geometry": {
        "type": "Point",
        "coordinates": [
          -173.33074694343307,
          -51.72082680307935
        ]
      }
    },
    {
      "type": "Feature",
      "properties": {
        "norad_id": 39150,
        "name": "GAOFEN-1",
        "group": "resource",
        "lat": 15.777236398790993,
        "lon": -115.35707304399216,
        "alt_km": 630.6238409418293,
        "timestamp": "2025-12-17T19:34:07.701705+00:00",
        "meta_object_name": "GAOFEN-1",
        "meta_object_id": "2013-018A",
        "meta_epoch": "2025-12-17T07:26:42.482688",
        "meta_mean_motion": 14.76543709,
        "meta_eccentricity": 0.00184068,
        "meta_inclination": 97.9326,
        "meta_ra_of_asc_node": 61.8889,
        "meta_arg_of_pericenter": 128.9582,
        "meta_mean_anomaly": 231.3272,
        "meta_ephemeris_type": 0,
        "meta_classification_type": "U",
        "meta_norad_cat_id": 39150,
        "meta_element_set_no": 999,
        "meta_rev_at_epoch": 68140,
        "meta_bstar": 0.00013914674,
        "meta_mean_motion_dot": 9.22e-06,
        "meta_mean_motion_ddot": 0,
        "tle_line1": "1 39150U 13018A   25351.31021392  .00000922  00000+0  13915-3 0  9992",
        "tle_line2": "2 39150  97.9326  61.8889 0018406 128.9582 231.3272 14.76543709681405"
      },
      "geometry": {
        "type": "Point",
        "coordinates": [
          -115.35707304399216,
          15.777236398790993
        ]
      }
    },
    {
      "type": "Feature",
      "properties": {
        "norad_id": 39160,
        "name": "VNREDSAT 1",
        "group": "resource",
        "lat": 14.174616321509294,
        "lon": 44.89324899020622,
        "alt_km": 677.8720094755672,
        "timestamp": "2025-12-17T19:34:07.701715+00:00",
        "meta_object_name": "VNREDSAT 1",
        "meta_object_id": "2013-021B",
        "meta_epoch": "2025-12-17T08:01:43.140576",
        "meta_mean_motion": 14.64929997,
        "meta_eccentricity": 0.00012272,
        "meta_inclination": 97.9375,
        "meta_ra_of_asc_node": 46.4487,
        "meta_arg_of_pericenter": 77.8981,
        "meta_mean_anomaly": 282.236,
        "meta_ephemeris_type": 0,
        "meta_classification_type": "U",
        "meta_norad_cat_id": 39160,
        "meta_element_set_no": 999,
        "meta_rev_at_epoch": 67366,
        "meta_bstar": 0.00010990903,
        "meta_mean_motion_dot": 5.42e-06,
        "meta_mean_motion_ddot": 0,
        "tle_line1": "1 39160U 13021B   25351.33452709  .00000542  00000+0  10991-3 0  9998",
        "tle_line2": "2 39160  97.9375  46.4487 0001227  77.8981 282.2360 14.64929997673667"
      },
      "geometry": {
        "type": "Point",
        "coordinates": [
          44.89324899020622,
          14.174616321509294
        ]
      }
    }
  ]
}